BEIJING 1               
1 28890U 05043A   19360.30784142  .00000002  00000-0  95216-5 0  9997
2 28890  98.0057 129.4523 0016287 127.3927 232.8779 14.61276294755084
HJ-1A                   
1 33320U 08041A   19360.30300501  .00000006  00000-0  80341-5 0  9992
2 33320  97.8149  53.0432 0024674 283.5967  76.2492 14.77062144608898
HJ-1B                   
1 33321U 08041B   19360.31614478  .00000070  00000-0  17025-4 0  9994
2 33321  97.8225  55.1438 0033461 303.5833  56.2187 14.77191152608893
YAOGAN 4                
1 33446U 08061A   19360.37340302  .00000079  00000-0  18023-4 0  9990
2 33446  97.7027 318.5332 0016077 180.0976 180.0234 14.76996710596133
DEIMOS-1                
1 35681U 09041A   19360.31738944  .00000037  00000-0  13426-4 0  9995
2 35681  97.8352 235.4743 0000341 194.6473 165.4707 14.71813618558771
UK-DMC 2                
1 35683U 09041C   19360.33100803 -.00000037  00000-0  14436-5 0  9990
2 35683  97.7121 207.1630 0001190  79.0876 281.0447 14.71125539558575
RISAT 1                 
1 38248U 12017A   19360.30108034  .00000439  00000-0  30970-4 0  9993
2 38248  97.5683   6.6520 0005659 114.0653 246.1169 15.09958364422354
DMC3-FM1                
1 40715U 15032A   19360.29586966 -.00000011  00000-0  60189-5 0  9990
2 40715  97.9510 252.5749 0017247  64.3858 295.9128 14.73679365240002
DMC3-FM2                
1 40716U 15032B   19360.25052611  .00000012  00000-0  94817-5 0  9997
2 40716  97.9528 252.8323 0014442  73.1021 287.1763 14.73693823240000
DMC3-FM3                
1 40717U 15032C   19360.27348534 -.00000007  00000-0  65433-5 0  9999
2 40717  97.9537 253.5568 0017981  66.1003 294.2083 14.73683548240000
